satname,norad_id,inclination_deg,eccentricity,mean_motion_rev_per_day,perigee_km,apogee_km,l1,l2
STARLINK-1234,45190,53.0337,0.000156,15.81187207,326.0361877626383,328.1282161536492,1 45190U 20012N   26175.33335648  .00092911  00000+0  46241-3 0  9991,2 45190  53.0337 157.9035 0001560  83.4030 240.3096 15.81187207  5999
STARLINK-1269,45197,53.1541,0.0001814,15.36327625,455.74003355635887,458.21981397630134,1 45197U 20012V   26174.47503425  .00036665  00000+0  10260-2 0  9997,2 45197  53.1541 266.6024 0001814 337.0170  23.0752 15.36327625351130
STARLINK-1154,45198,53.04,0.0003967,15.64960647,370.6736247944564,376.03025611981593,1 45198U 20012W   26174.82164680  .00032577  00000+0  33024-3 0  9995,2 45198  53.0400 216.3506 0003967  27.5542 332.5682 15.64960647351819
STARLINK-1199,45201,53.1548,0.0004401,15.36359218,453.8781268788589,459.8943143176293,1 45201U 20012Z   26174.90142688  .00037819  00000+0  10565-2 0  9991,2 45201  53.1548 248.8703 0004401 339.9396  20.1434 15.36359218351447
STARLINK-1209,45206,53.0362,0.0001444,15.72093995,351.9413281614661,353.885255485744,1 45206U 20012AE  26175.33335648 -.00034607  00000+0 -25493-3 0  9995,2 45206  53.0362 173.7047 0001444  89.1012 294.9782 15.72093995  6097
STARLINK-1231,45212,53.0358,0.0002244,15.28836052,477.7517929699934,480.8294064767488,1 45212U 20012AL  26174.89687298  .00021130  00000+0  75430-3 0  9994,2 45212  53.0358 244.8105 0002244  65.9308 294.1926 15.28836052351436
STARLINK-1271,45217,53.1549,0.0004136,15.36553722,453.48267572286295,459.13612978722085,1 45217U 20012AR  26175.22224596  .00034410  00000+0  95671-3 0  9999,2 45217  53.1549 247.4668 0004136 346.6137  13.4756 15.36553722351496
STARLINK-1191,45222,53.1525,0.000334,15.40630984,441.96721329391767,446.524565063889,1 45222U 20012AW  26174.83478662  .00040791  00000+0  99070-3 0  9992,2 45222  53.1525 221.8202 0003340 322.9122  37.1653 15.40630984351820
STARLINK-1212,45223,53.0381,0.0001553,15.70880346,355.3338771669096,357.4256180687198,1 45223U 20012AX  26175.26888885  .00050983  00000+0  40296-3 0  9993,2 45223  53.0381 189.4674 0001553  87.0338 273.0857 15.70880346352295
STARLINK-1215,45225,53.154,0.0004981,15.36670875,452.55796974801615,459.3660992061623,1 45225U 20012AZ  26174.82981014  .00036119  00000+0  99961-3 0  9992,2 45225  53.1540 223.5582 0004981 346.4685  13.6184 15.36670875351755
STARLINK-1221,45227,53.0628,0.0003484,15.45289756,428.1546760510246,432.8989529969858,1 45227U 20012BB  26175.15435263  .00014213  00000+0  30205-3 0  9998,2 45227  53.0628 123.7544 0003484  19.3472 340.7665 15.45289756353157
STARLINK-1222,45228,53.0511,0.0003647,15.5636687,395.7108915971485,400.65353883272564,1 45228U 20012BC  26175.20424780  .00028556  00000+0  40311-3 0  9991,2 45228  53.0511 189.5748 0003647  44.4631 315.6672 15.56366870352177
STARLINK-1226,45229,53.1536,0.00053,15.45834836,425.318432332645,432.53391929900954,1 45229U 20012BD  26174.82995431  .00045229  00000+0  92062-3 0  9991,2 45229  53.1536 218.5700 0005300 346.7483  13.3384 15.45834836351764
STARLINK-1227,45230,53.1524,0.0005094,15.4592711,425.18792440073776,432.1226844004623,1 45230U 20012BE  26174.83877758  .00045547  00000+0  92410-3 0  9995,2 45230  53.1524 218.6213 0005094 340.1884  19.8925 15.45927110351889
STARLINK-1246,45235,53.1536,0.00032,15.36462815,454.39187078822124,458.7660890153584,1 45235U 20012BK  26174.61141841  .00080814  00000+0  22256-2 0  9999,2 45235  53.1536 265.5881 0003200 301.8787  58.1905 15.36462815351219
STARLINK-1270,45237,53.0381,0.0001705,15.69993082,357.7681321420141,360.06546748775145,1 45237U 20012BM  26175.33335648  .00000147  00000+0  60351-5 0  9993,2 45237  53.0381 190.9441 0001705  89.0832 353.5937 15.69993082  5961
STARLINK-1279,45360,53.0344,0.0002331,15.81593841,324.37014185912176,327.4955792281062,1 45360U 20019A   26175.23729054  .00109428  00000+0  53281-3 0  9998,2 45360  53.0344 292.9648 0002331  33.7977 326.3193 15.81593841347392
STARLINK-1301,45361,53.0335,0.0003275,15.83479291,318.41627014953974,322.8039495064777,1 45361U 20019B   26174.73275180  .00098732  00000+0  44096-3 0  9998,2 45361  53.0335 297.6643 0003275 343.1540  16.9373 15.83479291347297
STARLINK-1262,45366,53.155,0.0003557,15.35421615,457.2362614751755,462.1006762857378,1 45366U 20019G   26174.91804854  .00040106  00000+0  11536-2 0  9993,2 45366  53.1550  30.7111 0003557 139.3198 220.8071 15.35421615346031
STARLINK-1273,45367,53.045,0.000273,15.59177057,388.18984419223216,391.88526749972425,1 45367U 20019H   26175.23992975  .00072883  00000+0  91158-3 0  9998,2 45367  53.0450   1.9612 0002730 119.1686 240.9599 15.59177057346443
STARLINK-1277,45369,53.041,7.89e-05,15.68591261,362.398185599719,363.4619259811234,1 45369U 20019K   26174.91969026  .00053091  00000+0  46094-3 0  9994,2 45369  53.0410 356.6223 0000789  86.3885 273.7221 15.68591261346495
STARLINK-1281,45370,53.1534,0.0004305,15.36228689,454.33073931982835,460.2160276600134,1 45370U 20019L   26174.98578844  .00037934  00000+0  10641-2 0  9993,2 45370  53.1534  29.9281 0004305 127.5272 232.6123 15.36228689346058
STARLINK-1300,45374,53.1584,0.0003534,15.36821912,453.09925012435724,457.9292748366788,1 45374U 20019Q   26174.99209882  .00041584  00000+0  11431-2 0  9995,2 45374  53.1584  29.7443 0003534 135.8450 224.2837 15.36821912346055
STARLINK-1302,45375,53.0459,0.0003424,15.68920878,359.67804389643425,364.29368003230775,1 45375U 20019R   26175.21114576  .00050559  00000+0  43336-3 0  9999,2 45375  53.0459 351.0080 0003424 114.5120 245.6254 15.68920878346595
STARLINK-1304,45376,53.0417,0.0002743,15.64942662,371.55172011286413,375.2556153231744,1 45376U 20019S   26175.19200290  .00041584  00000+0  41993-3 0  9991,2 45376  53.0417 352.9038 0002743 148.5184 211.5995 15.64942662346565
STARLINK-1305,45377,53.0387,0.0003132,15.73487162,346.83266610343435,351.04650687721187,1 45377U 20019T   26174.86628603  .00062143  00000+0  43835-3 0  9998,2 45377  53.0387 332.0284 0003132 314.0951  45.9809 15.73487162346831
STARLINK-1319,45379,53.0367,7.14e-05,15.80379618,328.88737886404306,329.84521033451256,1 45379U 20019V   26175.27639498  .00089118  00000+0  46065-3 0  9999,2 45379  53.0367 320.9259 0000714  52.9391 307.1695 15.80379618347020
STARLINK-1266,45383,53.0451,0.0001179,15.67301114,365.8336796503263,367.4240954466095,1 45383U 20019Z   26174.86283261  .00046145  00000+0  42325-3 0  9999,2 45383  53.0451 339.1799 0001179 294.8660  65.2232 15.67301114346728
STARLINK-1267,45384,53.0427,0.000142,15.71408082,353.91577880536533,355.8279533233281,1 45384U 20019AA  26175.33335648  .00011480  00000+0  92768-4 0  9991,2 45384  53.0427 328.0439 0001420  98.7637 237.9377 15.71408082  5989
STARLINK-1272,45386,53.0382,0.0001484,15.75973523,340.8650868862833,342.8595826888495,1 45386U 20019AC  26175.33335648 -.00279454  00000+0 -18195-2 0  9992,2 45386  53.0382 306.3034 0001484  82.0795  25.8507 15.75973523  5724
STARLINK-1274,45387,53.02,0.0005163,15.64568695,370.99309538490525,377.9658471531375,1 45387U 20019AD  26174.08154559  .00059010  00000+0  60091-3 0  9999,2 45387  53.0200 312.5658 0005163 219.8454 140.2182 15.64568695347026
STARLINK-1280,45388,53.0347,0.0002932,15.86009985,311.5203910491491,315.444356649974,1 45388U 20019AE  26175.10014769  .00134014  00000+0  52715-3 0  9994,2 45388  53.0347 313.4701 0002932 340.6440  19.4472 15.86009985347099
STARLINK-1283,45389,53.0399,0.0003435,15.7340314,346.86824169052306,351.4899078338858,1 45389U 20019AF  26174.10936177  .00051360  00000+0  36481-3 0  9994,2 45389  53.0399 311.2982 0003435 271.5700  88.4924 15.73403140347055
STARLINK-1284,45390,53.0411,0.0003214,15.71802301,351.58240134753487,355.9096557582898,1 45390U 20019AG  26175.16103382  .00060820  00000+0  46099-3 0  9994,2 45390  53.0411 330.1606 0003214  59.9407 300.1929 15.71802301346870
STARLINK-1297,45395,53.0408,8.62e-05,15.74533597,345.3790958792524,346.5383299801606,1 45395U 20019AM  26175.33335648  .00041552  00000+0  28235-3 0  9993,2 45395  53.0408 328.4192 0000862  84.3709  49.5879 15.74533597  5998
STARLINK-1307,45397,53.0533,5.49e-05,15.57762604,393.7621532637804,394.5057486141932,1 45397U 20019AP  26175.18018996  .00033046  00000+0  44173-3 0  9990,2 45397  53.0533 336.6529 0000549 192.0339 168.0659 15.57762604346616
STARLINK-1255,45399,53.0335,0.0002123,15.67253259,365.3342417609865,368.1981276532142,1 45399U 20019AR  26175.05881032  .00045784  00000+0  42080-3 0  9994,2 45399  53.0335 303.9728 0002123 168.3054 191.8011 15.67253259347042
STARLINK-1260,45404,53.1561,0.0003752,15.39368411,445.4146507180385,450.53696576934453,1 45404U 20019AW  26175.19116474  .00045747  00000+0  11561-2 0  9995,2 45404  53.1561 351.3174 0003752 143.9680 216.1578 15.39368411346321
STARLINK-1263,45405,53.1562,0.0004274,15.36491812,453.5718679658012,459.41410968024593,1 45405U 20019AX  26175.19303518  .00068103  00000+0  18784-2 0  9998,2 45405  53.1562 352.9109 0004274 229.3098 130.7534 15.36491812346300
STARLINK-1265,45406,53.1556,0.0002368,15.39721324,445.3165356256086,448.54888864127406,1 45406U 20019AY  26174.79055894  .00043024  00000+0  10759-2 0  9994,2 45406  53.1556 353.1549 0002368 132.9602 227.1602 15.39721324346266
STARLINK-1278,45408,53.0387,0.0001462,15.75505804,342.2095841208875,344.17490079138224,1 45408U 20019BA  26175.33335648  .00036278  00000+0  23702-3 0  9991,2 45408  53.0387 327.2234 0001462  68.7555 337.1893 15.75505804  5998
STARLINK-1296,45412,53.1567,0.0002938,15.39955631,444.23539479868214,448.2453989570877,1 45412U 20019BE  26175.21763752  .00047776  00000+0  11837-2 0  9994,2 45412  53.1567 350.8124 0002938 128.6263 231.5005 15.39955631346330
STARLINK-1309,45414,53.0594,0.0001265,15.74179429,346.11650008107154,347.81795145018987,1 45414U 20019BG  26175.33335648  .00016032  00000+0  11359-3 0  9999,2 45414  53.0594 321.3428 0001265  79.0648 144.8900 15.74179429  5984
